[{"OBJECT_NAME":"BRO-1","OBJECT_ID":"2019-054A","EPOCH":"2026-03-09T16:28:44.999616","MEAN_MOTION":15.66250354,"ECCENTRICITY":0.0008796,"INCLINATION":44.9993,"RA_OF_ASC_NODE":153.3787,"ARG_OF_PERICENTER":331.8221,"MEAN_ANOMALY":28.22,"EPHEMERIS_TYPE":0,"CLASSIFICATION_TYPE":"U","NORAD_CAT_ID":44495,"ELEMENT_SET_NO":999,"REV_AT_EPOCH":36404,"BSTAR":0.00076001799,"MEAN_MOTION_DOT":0.00081046,"MEAN_MOTION_DDOT":0},{"OBJECT_NAME":"STARLINK-11190 [DTC]","OBJECT_ID":"2024-154J","EPOCH":"2026-03-09T10:22:49.182816","MEAN_MOTION":15.69704354,"ECCENTRICITY":0.00014422,"INCLINATION":53.1596,"RA_OF_ASC_NODE":132.5571,"ARG_OF_PERICENTER":95.6071,"MEAN_ANOMALY":264.5111,"EPHEMERIS_TYPE":0,"CLASSIFICATION_TYPE":"U","NORAD_CAT_ID":60911,"ELEMENT_SET_NO":999,"REV_AT_EPOCH":8846,"BSTAR":-2.211407e-6,"MEAN_MOTION_DOT":-8.57e-6,"MEAN_MOTION_DDOT":0}]
