BRO-1                   
1 44495U 19054A   26068.68663194  .00081046  00000+0  76002-3 0  9996
2 44495  44.9993 153.3787 0008796 331.8221  28.2200 15.66250354364048
STARLINK-11190 [DTC]    
1 60911U 24154J   26068.43251369 -.00000857  00000+0 -22114-5 0  9994
2 60911  53.1596 132.5571 0001442  95.6071 264.5111 15.69704354 88461
